OBJECT_NAME,OBJECT_ID,EPOCH,MEAN_MOTION,ECCENTRICITY,INCLINATION,RA_OF_ASC_NODE,ARG_OF_PERICENTER,MEAN_ANOMALY,EPHEMERIS_TYPE,CLASSIFICATION_TYPE,NORAD_CAT_ID,ELEMENT_SET_NO,REV_AT_EPOCH,BSTAR,MEAN_MOTION_DOT,MEAN_MOTION_DDOT
ONEWEB-0670,2023-029AK,2026-06-17T17:52:58.220256,13.14502608,.0001662,87.8955,289.6293,90.0326,270.0994,0,U,55829,999,15950,-.58259E-3,-.203E-5,0
ONEWEB-0671,2023-029AL,2026-06-17T17:54:01.415808,13.19724742,.0001684,87.9171,304.8643,97.8051,262.3273,0,U,55830,999,15897,-.10185E-3,-.28E-6,0
ONEWEB-0672,2023-029AM,2026-06-17T18:36:08.920800,13.20772341,.0002261,87.9196,274.3176,98.8419,261.2970,0,U,55831,999,16122,.45336E-4,.31E-6,0
ONEWEB-0673,2023-029AN,2026-06-17T19:10:12.850176,13.19727172,.0001735,87.9178,304.8455,96.6797,263.4533,0,U,55832,999,15898,.50708E-4,.33E-6,0
ONEWEB-0674,2023-029AP,2026-06-17T18:56:53.969856,13.14503882,.0001696,87.8955,289.5975,88.8811,271.2513,0,U,55833,999,15949,.66479E-3,.259E-5,0
ONEWEB-0675,2023-029AQ,2026-06-17T19:31:50.577312,13.19724561,.0002124,87.9171,304.8521,103.9131,256.2238,0,U,55834,999,15900,-.2291E-4,.4E-7,0
ONEWEB-0720,2023-029AR,2026-06-17T19:20:27.738240,13.19724338,.0001633,87.9167,304.8538,105.3684,254.7629,0,U,55835,999,15892,.43197E-4,.3E-6,0
ONEWEB-0537,2023-043A,2026-06-17T17:26:16.433376,13.16594260,.0002304,87.9099,228.6646,98.4522,261.6870,0,U,56046,999,15903,-.30497E-3,-.104E-5,0
ONEWEB-0538,2023-043B,2026-06-17T17:17:09.179232,13.16594846,.0002151,87.9100,228.6677,104.4609,255.6760,0,U,56047,999,15904,-.51688E-4,-.7E-7,0
ONEWEB-0546,2023-043C,2026-06-17T15:09:28.753056,13.16595344,.0002726,87.9100,228.6856,95.4030,264.7412,0,U,56048,999,15902,.20406E-3,.91E-6,0
ONEWEB-0547,2023-043D,2026-06-17T15:02:19.039200,13.21826119,.0001973,87.9259,243.8868,103.9268,256.2085,0,U,56049,999,15828,.2153E-3,.102E-5,0
ONEWEB-0548,2023-043E,2026-06-17T17:34:13.521216,13.16595735,.0001988,87.9094,228.6621,85.1458,274.9899,0,U,56050,999,15903,-.54875E-3,-.197E-5,0
ONEWEB-0549,2023-043F,2026-06-17T18:31:51.080736,13.21825692,.0002124,87.9251,243.8643,109.6394,250.4970,0,U,56051,999,15830,.26885E-3,.124E-5,0
ONEWEB-0550,2023-043G,2026-06-17T18:12:29.264256,13.21825850,.0001902,87.9254,243.8644,93.5767,266.5584,0,U,56052,999,15830,.23532E-4,.23E-6,0
ONEWEB-0551,2023-043H,2026-06-17T18:19:42.645792,13.15549289,.000197,87.9002,259.1114,111.2049,248.9292,0,U,56053,999,15647,.98747E-4,.5E-6,0
ONEWEB-0552,2023-043J,2026-06-17T18:05:10.506048,13.21828482,.0001844,87.9252,243.8709,100.8102,259.3240,0,U,56054,999,15830,.30391E-4,.26E-6,0
ONEWEB-0553,2023-043K,2026-06-17T17:08:01.830048,13.16594815,.0002445,87.9096,228.6699,93.3728,266.7682,0,U,56055,999,15904,.51271E-4,.32E-6,0
ONEWEB-0554,2023-043L,2026-06-17T15:00:22.343040,13.16595562,.0001951,87.9096,228.6964,82.4292,277.7060,0,U,56056,999,15901,.19327E-3,.87E-6,0
ONEWEB-0555,2023-043M,2026-06-17T15:55:02.506080,13.16596478,.0002664,87.9101,228.6772,94.1063,266.0373,0,U,56057,999,15902,-.24791E-3,-.82E-6,0
ONEWEB-0557,2023-043N,2026-06-17T14:26:09.218976,13.16593846,.0002729,87.9096,228.6994,71.4852,288.6575,0,U,56058,999,15901,.81169E-4,.44E-6,0
ONEWEB-0558,2023-043P,2026-06-17T17:55:29.287200,13.21827979,.0002199,87.9254,243.8671,107.1714,252.9661,0,U,56059,999,15831,-.34417E-4,-.1E-7,0
ONEWEB-0559,2023-043Q,2026-06-17T17:38:31.838208,13.21825942,.000192,87.9256,243.8644,104.9227,255.2120,0,U,56060,999,15832,.15522E-4,.19E-6,0
ONEWEB-0566,2023-043R,2026-06-17T17:28:51.912768,13.21827131,.0001882,87.9256,243.8640,108.1352,251.9987,0,U,56061,999,15830,.18586E-3,.9E-6,0
ONEWEB-0568,2023-043S,2026-06-17T14:51:14.510016,13.16594547,.0002341,87.9096,228.6856,95.3322,264.8076,0,U,56062,999,15903,.25875E-3,.112E-5,0
ONEWEB-0574,2023-043T,2026-06-17T17:19:10.235136,13.21824641,.0002036,87.9266,243.8682,93.0737,267.0630,0,U,56063,999,15834,.11577E-3,.61E-6,0
ONEWEB-0575,2023-043U,2026-06-17T14:42:07.469280,13.16594411,.0002244,87.9096,228.6833,87.0014,273.1373,0,U,56064,999,15902,.2194E-3,.97E-6,0
ONEWEB-0576,2023-043V,2026-06-17T16:04:11.449344,13.16593791,.0002148,87.9098,228.6797,91.6451,268.4926,0,U,56065,999,15902,-.56721E-4,-.9E-7,0
ONEWEB-0577,2023-043W,2026-06-17T14:23:53.079360,13.16593489,.0002177,87.9098,228.6912,76.5886,283.5487,0,U,56066,999,15904,-.71329E-5,.1E-6,0
ONEWEB-0578,2023-043X,2026-06-17T15:10:47.866080,13.21824702,.0002364,87.9259,243.8840,96.7465,263.3938,0,U,56067,999,15829,.18372E-3,.89E-6,0
ONEWEB-0579,2023-043Y,2026-06-17T14:58:42.002400,13.21826443,.0001789,87.9262,243.8825,102.0298,258.1037,0,U,56068,999,15830,.13448E-3,.69E-6,0
ONEWEB-0581,2023-043Z,2026-06-17T14:32:59.004672,13.16592886,.0002033,87.9098,228.7012,81.2958,278.8403,0,U,56069,999,15901,.134E-3,.64E-6,0
