ONEWEB-0670             
1 55829U 23029AK  26168.74511829 -.00000203  00000+0 -58259-3 0  9993
2 55829  87.8955 289.6293 0001662  90.0326 270.0994 13.14502608159508
ONEWEB-0671             
1 55830U 23029AL  26168.74584972 -.00000028  00000+0 -10185-3 0  9995
2 55830  87.9171 304.8643 0001684  97.8051 262.3273 13.19724742158978
ONEWEB-0672             
1 55831U 23029AM  26168.77510325  .00000031  00000+0  45336-4 0  9999
2 55831  87.9196 274.3176 0002261  98.8419 261.2970 13.20772341161223
ONEWEB-0673             
1 55832U 23029AN  26168.79875984  .00000033  00000+0  50708-4 0  9998
2 55832  87.9178 304.8455 0001735  96.6797 263.4533 13.19727172158981
ONEWEB-0674             
1 55833U 23029AP  26168.78951354  .00000259  00000+0  66479-3 0  9995
2 55833  87.8955 289.5975 0001696  88.8811 271.2513 13.14503882159493
ONEWEB-0675             
1 55834U 23029AQ  26168.81377983  .00000004  00000+0 -22910-4 0  9992
2 55834  87.9171 304.8521 0002124 103.9131 256.2238 13.19724561159002
ONEWEB-0720             
1 55835U 23029AR  26168.80587660  .00000030  00000+0  43197-4 0  9995
2 55835  87.9167 304.8538 0001633 105.3684 254.7629 13.19724338158928
ONEWEB-0537             
1 56046U 23043A   26168.72657909 -.00000104  00000+0 -30497-3 0  9993
2 56046  87.9099 228.6646 0002304  98.4522 261.6870 13.16594260159033
ONEWEB-0538             
1 56047U 23043B   26168.72024513 -.00000007  00000+0 -51688-4 0  9991
2 56047  87.9100 228.6677 0002151 104.4609 255.6760 13.16594846159047
ONEWEB-0546             
1 56048U 23043C   26168.63158279  .00000091  00000+0  20406-3 0  9993
2 56048  87.9100 228.6856 0002726  95.4030 264.7412 13.16595344159029
ONEWEB-0547             
1 56049U 23043D   26168.62660925  .00000102  00000+0  21530-3 0  9991
2 56049  87.9259 243.8868 0001973 103.9268 256.2085 13.21826119158280
ONEWEB-0548             
1 56050U 23043E   26168.73210094 -.00000197  00000+0 -54875-3 0  9997
2 56050  87.9094 228.6621 0001988  85.1458 274.9899 13.16595735159030
ONEWEB-0549             
1 56051U 23043F   26168.77211899  .00000124  00000+0  26885-3 0  9994
2 56051  87.9251 243.8643 0002124 109.6394 250.4970 13.21825692158305
ONEWEB-0550             
1 56052U 23043G   26168.75867204  .00000023  00000+0  23532-4 0  9995
2 56052  87.9254 243.8644 0001902  93.5767 266.5584 13.21825850158303
ONEWEB-0551             
1 56053U 23043H   26168.76368803  .00000050  00000+0  98747-4 0  9998
2 56053  87.9002 259.1114 0001970 111.2049 248.9292 13.15549289156471
ONEWEB-0552             
1 56054U 23043J   26168.75359382  .00000026  00000+0  30391-4 0  9994
2 56054  87.9252 243.8709 0001844 100.8102 259.3240 13.21828482158308
ONEWEB-0553             
1 56055U 23043K   26168.71391007  .00000032  00000+0  51271-4 0  9998
2 56055  87.9096 228.6699 0002445  93.3728 266.7682 13.16594815159040
ONEWEB-0554             
1 56056U 23043L   26168.62525860  .00000087  00000+0  19327-3 0  9990
2 56056  87.9096 228.6964 0001951  82.4292 277.7060 13.16595562159011
ONEWEB-0555             
1 56057U 23043M   26168.66322345 -.00000082  00000+0 -24791-3 0  9996
2 56057  87.9101 228.6772 0002664  94.1063 266.0373 13.16596478159020
ONEWEB-0557             
1 56058U 23043N   26168.60149559  .00000044  00000+0  81169-4 0  9994
2 56058  87.9096 228.6994 0002729  71.4852 288.6575 13.16593846159015
ONEWEB-0558             
1 56059U 23043P   26168.74686675 -.00000001  00000+0 -34417-4 0  9994
2 56059  87.9254 243.8671 0002199 107.1714 252.9661 13.21827979158313
ONEWEB-0559             
1 56060U 23043Q   26168.73509072  .00000019  00000+0  15522-4 0  9993
2 56060  87.9256 243.8644 0001920 104.9227 255.2120 13.21825942158327
ONEWEB-0566             
1 56061U 23043R   26168.72837862  .00000090  00000+0  18586-3 0  9995
2 56061  87.9256 243.8640 0001882 108.1352 251.9987 13.21827131158300
ONEWEB-0568             
1 56062U 23043S   26168.61891794  .00000112  00000+0  25875-3 0  9992
2 56062  87.9096 228.6856 0002341  95.3322 264.8076 13.16594547159037
ONEWEB-0574             
1 56063U 23043T   26168.72164624  .00000061  00000+0  11577-3 0  9997
2 56063  87.9266 243.8682 0002036  93.0737 267.0630 13.21824641158340
ONEWEB-0575             
1 56064U 23043U   26168.61258645  .00000097  00000+0  21940-3 0  9997
2 56064  87.9096 228.6833 0002244  87.0014 273.1373 13.16594411159024
ONEWEB-0576             
1 56065U 23043V   26168.66957696 -.00000009  00000+0 -56721-4 0  9996
2 56065  87.9098 228.6797 0002148  91.6451 268.4926 13.16593791159026
ONEWEB-0577             
1 56066U 23043W   26168.59991990  .00000010  00000+0 -71329-5 0  9997
2 56066  87.9098 228.6912 0002177  76.5886 283.5487 13.16593489159048
ONEWEB-0578             
1 56067U 23043X   26168.63249845  .00000089  00000+0  18372-3 0  9990
2 56067  87.9259 243.8840 0002364  96.7465 263.3938 13.21824702158296
ONEWEB-0579             
1 56068U 23043Y   26168.62409725  .00000069  00000+0  13448-3 0  9992
2 56068  87.9262 243.8825 0001789 102.0298 258.1037 13.21826443158307
ONEWEB-0581             
1 56069U 23043Z   26168.60623848  .00000064  00000+0  13400-3 0  9998
2 56069  87.9098 228.7012 0002033  81.2958 278.8403 13.16592886159019
